{
  "norad_id": 36585,
  "name": "NAVSTAR 65 (USA 213)",
  "history": [
    {
      "epoch": "2026-03-28T17:12:42.892704Z",
      "apogee_km": 20520.156764259606,
      "perigee_km": 19845.186063815727,
      "latitude_deg": 17.313767477465404,
      "longitude_deg": 140.40236984566548,
      "height_km": 19940.052424597437,
      "semi_major_axis_km": 26560.808414037667,
      "eccentricity": 0.01270614,
      "inclination_deg": 54.2836,
      "raan_deg": 211.8024,
      "arg_perigee_deg": 66.0086,
      "mean_anomaly_deg": 316.4344,
      "mean_motion_rev_day": 2.00558387
    }
  ]
}