GPS BIIF-1  (PRN 25)    
1 36585U 10022A   26087.71716311 -.00000041  00000+0  00000+0 0  9996
2 36585  54.2836 211.8024 0127061  66.0086 316.4344  2.00558387115985
